{"type": "FeatureCollection", "features": [{"type": "Feature", "geometry": {"type": "MultiPolygon", "coordinates": [[[[-121.3715646, 45.0839469], [-121.3735114, 45.0843448], [-121.3758677, 45.0848267], [-121.3775625, 45.0851727], [-121.3767983, 45.0851704], [-121.3758438, 45.0851668], [-121.3706961, 45.0851501], [-121.3670339, 45.085133], [-121.3622765, 45.0851058], [-121.3594439, 45.0850894], [-121.3589326, 45.0850867], [-121.3589513, 45.0815832], [-121.3589528, 45.0813621], [-121.3594027, 45.081455], [-121.3617666, 45.0819402], [-121.3715646, 45.0839469]]], [[[-121.4183747, 45.09347], [-121.4203155, 45.0938742], [-121.4234953, 45.0945015], [-121.4305224, 45.095936], [-121.4407761, 45.0980208], [-121.4432599, 45.0985011], [-121.445899, 45.0990315], [-121.449176, 45.0997103], [-121.4408207, 45.0996479], [-121.430556, 45.0997517], [-121.4233025, 45.0997236], [-121.4204379, 45.0997127], [-121.4108788, 45.0997204], [-121.4078072, 45.099699], [-121.3999104, 45.0996226], [-121.3996906, 45.0906486], [-121.3996731, 45.0899195], [-121.3996686, 45.0896697], [-121.4037768, 45.0904858], [-121.4109118, 45.0919367], [-121.4142145, 45.0926093], [-121.4156109, 45.0928953], [-121.4183747, 45.09347]]]]}, "properties": {"mukey": "667004", "series": "Pipp", "taxorder": "Andisols", "taxsubgrp": "Humic Vitrixerands", "soilgroup": "ash_pumice"}}]}